{
    "links": {
        "self": "http://www.neowsapp.com/rest/v1/neo/3555628?api_key=iIulBulltgU6a56xZRHN4H3l9WmuAYTsLGpBGhQ2"
    },
    "id": "3555628",
    "neo_reference_id": "3555628",
    "name": "(2011 BG10)",
    "designation": "2011 BG10",
    "nasa_jpl_url": "http://ssd.jpl.nasa.gov/sbdb.cgi?sstr=3555628",
    "absolute_magnitude_h": 26.3,
    "estimated_diameter": {
        "kilometers": {
            "estimated_diameter_min": 0.0146067964,
            "estimated_diameter_max": 0.0326617897
        },
        "meters": {
            "estimated_diameter_min": 14.6067964271,
            "estimated_diameter_max": 32.6617897446
        },
        "miles": {
            "estimated_diameter_min": 0.0090762397,
            "estimated_diameter_max": 0.020295089
        },
        "feet": {
            "estimated_diameter_min": 47.92256199,
            "estimated_diameter_max": 107.1581062656
        }
    },
    "is_potentially_hazardous_asteroid": false,
    "close_approach_data": [
        {
            "close_approach_date": "1903-05-05",
            "close_approach_date_full": "1903-May-05 22:54",
            "epoch_date_close_approach": -2103584760000,
            "relative_velocity": {
                "kilometers_per_second": "21.5161428237",
                "kilometers_per_hour": "77458.1141653153",
                "miles_per_hour": "48129.4598823316"
            },
            "miss_distance": {
                "astronomical": "0.4261565887",
                "lunar": "165.7749130043",
                "kilometers": "63752117.955986069",
                "miles": "39613729.1848189922"
            },
            "orbiting_body": "Earth"
        },
        {
            "close_approach_date": "1963-05-10",
            "close_approach_date_full": "1963-May-10 09:57",
            "epoch_date_close_approach": -209743380000,
            "relative_velocity": {
                "kilometers_per_second": "23.6020187499",
                "kilometers_per_hour": "84967.2674995676",
                "miles_per_hour": "52795.3557416063"
            },
            "miss_distance": {
                "astronomical": "0.4903180003",
                "lunar": "190.7337021167",
                "kilometers": "73350528.467539361",
                "miles": "45577904.9141947418"
            },
            "orbiting_body": "Earth"
        },
        {
            "close_approach_date": "1967-05-09",
            "close_approach_date_full": "1967-May-09 16:09",
            "epoch_date_close_approach": -83577060000,
            "relative_velocity": {
                "kilometers_per_second": "23.1909932727",
                "kilometers_per_hour": "83487.5757815656",
                "miles_per_hour": "51875.9328516067"
            },
            "miss_distance": {
                "astronomical": "0.4744571723",
                "lunar": "184.5638400247",
                "kilometers": "70977782.382303001",
                "miles": "44103548.8636273738"
            },
            "orbiting_body": "Earth"
        },
        {
            "close_approach_date": "2011-02-01",
            "close_approach_date_full": "2011-Feb-01 03:35",
            "epoch_date_close_approach": 1296531300000,
            "relative_velocity": {
                "kilometers_per_second": "10.899713394",
                "kilometers_per_hour": "39238.9682182967",
                "miles_per_hour": "24381.5688909744"
            },
            "miss_distance": {
                "astronomical": "0.0273793862",
                "lunar": "10.6505812318",
                "kilometers": "4095897.857427394",
                "miles": "2545072.9120062772"
            },
            "orbiting_body": "Earth"
        }
    ],
    "orbital_data": {
        "orbit_id": "11",
        "orbit_determination_date": "2017-04-06 08:54:53",
        "first_observation_date": "2011-01-23",
        "last_observation_date": "2011-01-30",
        "data_arc_in_days": 7,
        "observations_used": 37,
        "orbit_uncertainty": "8",
        "minimum_orbit_intersection": ".0119776",
        "jupiter_tisserand_invariant": "3.158",
        "epoch_osculation": "2455587.5",
        "eccentricity": ".6218823309543371",
        "semi_major_axis": "2.511227567994423",
        "inclination": "3.383938854097236",
        "ascending_node_longitude": "125.4755384742491",
        "orbital_period": "1453.541823311435",
        "perihelion_distance": ".9495395144532603",
        "perihelion_argument": "37.87566227950023",
        "aphelion_distance": "4.072915621535587",
        "perihelion_time": "2455616.918601444153",
        "mean_anomaly": "352.7138687376965",
        "mean_motion": ".2476708920420699",
        "equinox": "J2000",
        "orbit_class": {
            "orbit_class_type": "APO",
            "orbit_class_description": "Near-Earth asteroid orbits which cross the Earth’s orbit similar to that of 1862 Apollo",
            "orbit_class_range": "a (semi-major axis) > 1.0 AU; q (perihelion) < 1.017 AU"
        }
    },
    "is_sentry_object": false
}